BEIDOU 3 (C01)          
1 36287U 10001A   22247.62848566 -.00000288  00000+0  00000+0 0  9997
2 36287   1.6469  46.1509 0001465 353.2136 310.9915  1.00267176 46309
BEIDOU 5 (C06)          
1 36828U 10036A   22247.62889183 -.00000146  00000+0  00000+0 0  9999
2 36828  54.2013 175.5057 0030394 188.9689 313.6883  1.00276098 44375
BEIDOU 6 (C04)          
1 37210U 10057A   22247.60498753 -.00000117  00000+0  00000+0 0  9993
2 37210   0.9922  55.0476 0006249 137.0260 169.5539  1.00272997 43433
BEIDOU 7 (C07)          
1 37256U 10068A   22247.61463080 -.00000168  00000+0  00000+0 0  9997
2 37256  50.0699 288.6977 0024046 202.8945 181.3021  1.00282460 42945
BEIDOU 8 (C08)          
1 37384U 11013A   22247.24428279 -.00000156  00000+0  00000+0 0  9997
2 37384  60.4077  53.4773 0023532 177.1352 308.3865  1.00286709 41811
BEIDOU 9 (C09)          
1 37763U 11038A   22247.61906020 -.00000096  00000+0  00000+0 0  9994
2 37763  54.4820 178.0045 0099150 228.1858 255.3992  1.00264642 40794
BEIDOU 10 (C10)         
1 37948U 11073A   22247.56735770 -.00000123  00000+0  00000+0 0  9995
2 37948  50.1882 288.3458 0086598 219.2958 136.4053  1.00276543 39548
BEIDOU 11 (C05)         
1 38091U 12008A   22247.59632565  .00000050  00000+0  00000+0 0  9993
2 38091   1.7352  69.4730 0011751 343.6045 203.9950  1.00270661 38620
BEIDOU 12 (C11)         
1 38250U 12018A   22247.62507383 -.00000091  00000+0  00000+0 0  9990
2 38250  56.6709 350.9464 0022407 249.7943 121.9681  1.86234474 70562
BEIDOU 13 (C12)         
1 38251U 12018B   22247.59935424 -.00000091  00000+0  00000+0 0  9998
2 38251  56.5871 350.2664 0013067 248.7124 149.9771  1.86234233 70562
BEIDOU 15 (C14)         
1 38775U 12050B   22247.47049436  .00000001  00000+0  00000+0 0  9991
2 38775  55.4446 109.0254 0012776 331.7173 176.5505  1.86231537 67939
BEIDOU 16 (C02)         
1 38953U 12059A   22247.53938208 -.00000183  00000+0  00000+0 0  9991
2 38953   1.1150  81.1223 0024334 298.1871 242.5942  1.00274288 36051
BEIDOU 17 (C31)         
1 40549U 15019A   22247.03673090 -.00000169  00000+0  00000+0 0  9998
2 40549  51.7495 311.8449 0038440 196.5762 303.6494  1.00280705 27225
BEIDOU 18 (C57)         
1 40748U 15037A   22247.19789485 -.00000090  00000+0  00000+0 0  9995
2 40748  55.8368 349.0981 0002198  62.3625 336.5021  1.86233517 48387
BEIDOU 19 (C58)         
1 40749U 15037B   22246.87525253 -.00000089  00000+0  00000+0 0  9999
2 40749  55.8428 349.0987 0002059 322.1456 354.6169  1.86232709 48360
BEIDOU 20 (C18)         
1 40938U 15053A   22247.53938208 -.00000092  00000+0  00000+0 0  9993
2 40938  51.3793 274.9626 0046144 199.9883 159.4855  1.00274454 25490
BEIDOU IGSO-6 (C13)     
1 41434U 16021A   22247.40443771 -.00000131  00000+0  00000+0 0  9997
2 41434  58.2160  52.0156 0044679 214.9938 317.6509  1.00267800 23623
BEIDOU-2 G7 (C03)       
1 41586U 16037A   22247.52688302 -.00000359  00000+0  00000+0 0  9998
2 41586   1.5447  67.5438 0007787   0.2450 215.8103  1.00263414 22937
BEIDOU-3 M1 (C19)       
1 43001U 17069A   22247.28799414  .00000001  00000+0  00000+0 0  9991
2 43001  55.5962 109.0418 0008358 297.5649 244.6812  1.86231862 32864
BEIDOU-3 M2 (C20)       
1 43002U 17069B   22247.11702595  .00000001  00000+0  00000+0 0  9998
2 43002  55.5959 109.0835 0007072 326.3226 144.2080  1.86231450 32852
BEIDOU-3 M3 (C27)       
1 43107U 18003A   22247.27561594 -.00000091  00000+0  00000+0 0  9992
2 43107  55.2892 349.9778 0004295  71.7487 311.3557  1.86232732 31620
BEIDOU-3 M4 (C28)       
1 43108U 18003B   22247.27023483 -.00000091  00000+0  00000+0 0  9993
2 43108  55.2823 349.9662 0002890 228.7059 194.2343  1.86230994 31624
BEIDOU-3 M5 (C21)       
1 43207U 18018A   22246.54712604  .00000001  00000+0  00000+0 0  9998
2 43207  55.5554 109.1786 0005282 359.4109   0.6711  1.86231803 30995
BEIDOU-3 M6 (C22)       
1 43208U 18018B   22246.07685841  .00000001  00000+0  00000+0 0  9999
2 43208  55.5553 109.1994 0006827 313.1824  46.8476  1.86231646 30987
BEIDOU-3 M7 (C29)       
1 43245U 18029A   22247.15475508 -.00000090  00000+0  00000+0 0  9998
2 43245  55.1992 347.7454 0001054 155.7101  56.8448  1.86232762 30156
BEIDOU-3 M8 (C30)       
1 43246U 18029B   22247.34356679 -.00000090  00000+0  10000-3 0  9992
2 43246  55.1964 347.7678 0002870   6.6587  19.0837  1.86233003 30155
BEIDOU IGSO-7 (C16)     
1 43539U 18057A   22247.07893918 -.00000146  00000+0  00000+0 0  9997
2 43539  55.0919 175.0354 0052586 228.5865  81.5998  1.00286792 15294
BEIDOU-3 M9 (C23)       
1 43581U 18062A   22246.77517093  .00000082  00000+0  00000+0 0  9991
2 43581  54.2579 229.4026 0005993 273.2181 302.6625  1.86231945 27888
BEIDOU-3 M10 (C24)      
1 43582U 18062B   22247.37898867  .00000077  00000+0  00000+0 0  9994
2 43582  54.2568 229.3722 0004984 336.7758  15.8045  1.86232364 27899
BEIDOU-3 M11 (C25)      
1 43602U 18067A   22247.56444936  .00000074  00000+0  00000+0 0  9994
2 43602  54.3400 227.9877 0006722 359.9186 158.2522  1.86231648 27398
BEIDOU-3 M12 (C26)      
1 43603U 18067B   22247.61791736  .00000074  00000+0  00000+0 0  9994
2 43603  54.3377 227.9523 0004184 342.3764 122.0020  1.86231615 27417
BEIDOU-3 M13 (C32)      
1 43622U 18072A   22246.86520561  .00000000  00000+0  00000+0 0  9992
2 43622  55.5225 108.7195 0005280 294.8772  53.9243  1.86231907 26908
BEIDOU-3 M14 (C33)      
1 43623U 18072B   22246.58012366  .00000001  00000+0  00000+0 0  9992
2 43623  55.5252 108.7224 0004079 331.5231 276.3855  1.86231913 26903
BEIDOU-3 M15 (C34)      
1 43647U 18078A   22246.48813811 -.00000087  00000+0  10000-3 0  9997
2 43647  55.0943 347.9201 0005163  10.6384  71.2279  1.86233048 26411
BEIDOU-3 M16 (C35)      
1 43648U 18078B   22246.52118159 -.00000088  00000+0  00000+0 0  9992
2 43648  55.0902 347.9253 0003483  30.8419 340.8138  1.86232356 26432
BEIDOU-3 G1 (C59)       
1 43683U 18085A   22247.50952385 -.00000287  00000+0  00000+0 0  9996
2 43683   0.9746 153.7850 0004721  21.1276 132.0347  1.00265340 14202
BEIDOU-3 M17 (C36)      
1 43706U 18093A   22247.19147175  .00000079  00000+0  00000+0 0  9997
2 43706  54.3402 229.2799 0011084 276.0890  83.7787  1.86231727 25808
BEIDOU-3 M18 (C37)      
1 43707U 18093B   22247.27910699  .00000078  00000+0  00000+0 0  9995
2 43707  54.3397 229.2675 0009463 296.0534 213.8603  1.86232282 25798
BEIDOU-3 IGSO-1 (C38)   
1 44204U 19023A   22246.36299453 -.00000193  00000+0  00000+0 0  9998
2 44204  56.6719  52.1345 0023229 188.3075 351.8844  1.00286543 12498
BEIDOU-2 G8             
1 44231U 19027A   22247.63851174 -.00000254  00000+0  00000+0 0  9995
2 44231   1.0465  78.6626 0005817 114.6866 164.7750  1.00269616 12217
BEIDOU-3 IGSO-2 (C39)   
1 44337U 19035A   22247.62860372 -.00000159  00000+0  00000+0 0  9994
2 44337  55.1244 171.0196 0025836 193.2834 325.2830  1.00280532 11841
BEIDOU-3 M23 (C45)      
1 44542U 19061A   22247.12766512  .00000080  00000+0  00000+0 0  9999
2 44542  54.5668 229.4394 0008810 328.0236  31.9173  1.86231385 20057
BEIDOU-3 M24 (C46)      
1 44543U 19061B   22247.36854865  .00000078  00000+0  00000+0 0  9992
2 44543  54.5636 229.4007 0006459 308.9345 123.9202  1.86231834 20053
BEIDOU-3 IGSO-3         
1 44709U 19073A   22247.52546080 -.00000157  00000+0  10000-3 0  9998
2 44709  57.1350 295.5640 0027559 180.9847 175.8835  1.00285040 10584
BEIDOU-3 M21            
1 44793U 19078A   22247.59298336 -.00000092  00000+0  10000-3 0  9999
2 44793  54.9432 347.8946 0005232  20.4328  35.9499  1.86232421 18926
BEIDOU-3 M22            
1 44794U 19078B   22246.55352530 -.00000088  00000+0  00000+0 0  9992
2 44794  54.9184 347.9205 0003084  18.2230 333.0514  1.86232886 18891
BEIDOU-3 M19            
1 44864U 19090A   22246.55625910  .00000000  00000+0  00000+0 0  9992
2 44864  55.4578 108.9376 0015729 272.5090 275.0072  1.86232055 18481
BEIDOU-3 M20            
1 44865U 19090B   22247.40805229  .00000001  00000+0  00000+0 0  9992
2 44865  55.4605 108.9410 0013921 287.4941 200.9651  1.86232030 18476
BEIDOU-3 G2             
1 45344U 20017A   22247.51726397 -.00000145  00000+0  00000+0 0  9996
2 45344   2.0244 355.9935 0004618 143.8907 109.9562  1.00273108  9401
BEIDOU-3 G3             
1 45807U 20040A   22247.52688302 -.00000360  00000+0  00000+0 0  9999
2 45807   1.2694 305.6658 0006829 333.8823   4.2687  1.00275411  8215
